IRIDIUM 39              
1 25042U 97069D   25141.75275198  .00000501  00000+0  12586-3 0  9991
2 25042  86.3946 222.4559 0019144  41.6043 318.6614 14.49191353445391
IRIDIUM 38              
1 25043U 97069E   25142.56347876  .00000399  00000+0  12531-3 0  9990
2 25043  86.3969 243.9291 0003060 134.7678 225.3769 14.38096782442532
IRIDIUM 42              
1 25077U 97077A   25142.05056511  .00000335  00000+0  10788-3 0  9995
2 25077  86.3965 250.2837 0002162 114.9484 245.1938 14.36332060437441
IRIDIUM 44              
1 25078U 97077B   25141.79763216  .00000359  00000+0  10736-3 0  9992
2 25078  86.3983 232.3821 0004101 104.3371 255.8284 14.40222006439930
IRIDIUM 45              
1 25104U 97082A   25141.49291616  .00020240  00000+0  73394-3 0  9995
2 25104  86.3595  60.8447 0122211  72.1213 289.3314 15.21332316447983
IRIDIUM 24              
1 25105U 97082B   25141.80467041  .00000472  00000+0  13747-3 0  9999
2 25105  86.3890  91.4909 0012020 154.5682 205.6112 14.42073794439663
IRIDIUM 51              
1 25262U 98018A   25141.82724474  .00038107  00000+0  88426-3 0  9993
2 25262  86.3839  68.8674 0088980 354.2749   5.7477 15.38070131443192
IRIDIUM 57              
1 25273U 98019B   25142.10882844  .00000314  00000+0  10156-3 0  9998
2 25273  86.3967 156.1865 0002316  92.5862 267.5600 14.35876579421251
